NORAD_CAT_ID,OBJECT_NAME,OBJECT_TYPE,EPOCH,MEAN_MOTION,ECCENTRICITY,INCLINATION,RA_OF_ASC_NODE,ARG_OF_PERICENTER,MEAN_ANOMALY,BSTAR,MEAN_MOTION_DOT,MEAN_MOTION_DDOT,TLE_LINE0,TLE_LINE1,TLE_LINE2,SEMIMAJOR_AXIS,PERIOD,APOGEE,PERIGEE,DECAYED
53617.0,STARLINK-4601,PAYLOAD,2022-10-04 06:00:00,15.7325759,0.0001222,53.2155,104.2773,103.5977,116.3516,-0.00065367,-0.0009158999999999,0.0,0 STARLINK-4601,1 53617U 22104AF  22277.25001157 -.00091590  00000-0 -65367-3 0  9998,2 53617  53.2155 104.2773 0001222 103.5977 116.3516 15.73257590  5875,6727.731,91.53,350.418,348.774,0.0
53617.0,STARLINK-4601,PAYLOAD,2022-10-04 14:00:01,15.73214297,0.0001252,53.2158,102.6274,105.8693,203.0355,-0.00047892,-0.00067338,0.0,0 STARLINK-4601,1 53617U 22104AF  22277.58334491 -.00067338  00000-0 -47892-3 0  9990,2 53617  53.2158 102.6274 0001252 105.8693 203.0355 15.73214297  1305,6727.854,91.532,350.56199999999984,348.87699999999984,0.0
53617.0,STARLINK-4601,PAYLOAD,2022-10-04 22:00:00,15.73136598,0.0001111,53.2157,100.9798,92.1105,305.7334,0.00024861,0.00034319,0.0,0 STARLINK-4601,1 53617U 22104AF  22277.91667824  .00034319  00000-0  24861-3 0  9998,2 53617  53.2157 100.9798 0001111  92.1105 305.7334 15.73136598  5977,6728.076,91.537,350.68800000000016,349.1930000000001,0.0
53617.0,STARLINK-4601,PAYLOAD,2022-10-05 14:00:01,15.73188668,0.000109,53.2154,97.6793,101.6849,113.976,-0.00014317,-0.00020653,0.0,0 STARLINK-4601,1 53617U 22104AF  22278.58335648 -.00020653  00000-0 -14317-3 0  9991,2 53617  53.2154  97.6793 0001090 101.6849 113.9760 15.73188668  1308,6727.927,91.534,350.526,349.059,0.0
53617.0,STARLINK-4601,PAYLOAD,2022-10-05 22:00:00,15.73308608,0.0001032,53.2159,96.0302,88.5411,215.9581,-0.0016489999999999,-0.00226957,0.0,0 STARLINK-4601,1 53617U 22104AF  22278.91667824 -.00226957  00000-0 -16490-2 0  9990,2 53617  53.2159  96.0302 0001032  88.5411 215.9581 15.73308608  1308,6727.5859999999975,91.527,350.145,348.756,0.0
53617.0,STARLINK-4601,PAYLOAD,2022-10-06 06:00:00,15.73437088,7.57e-05,53.2164,94.3779,85.5931,307.8545,-0.0041291,-0.005493,0.0,0 STARLINK-4601,1 53617U 22104AF  22279.25001157 -.00549300  00000-0 -41291-2 0  9996,2 53617  53.2164  94.3779 0000757  85.5931 307.8545 15.73437088  6187,6727.219,91.519,349.594,348.575,0.0
53617.0,STARLINK-4601,PAYLOAD,2022-10-06 14:00:01,15.7298782,0.0001143,53.2168,92.7268,96.7048,25.7542,-0.0041343999999999,-0.00540109,0.0,0 STARLINK-4601,1 53617U 22104AF  22279.58334491 -.00540109  00000-0 -41344-2 0  9999,2 53617  53.2168  92.7268 0001143  96.7048  25.7542 15.72987820  1304,6728.5,91.546,351.134,349.596,0.0
53617.0,STARLINK-4601,PAYLOAD,2022-10-06 22:42:55,15.7255223,9.51e-05,53.2174,90.9321,83.5177,296.1607,-0.0085565,-0.01051136,0.0,0 STARLINK-4601,1 53617U 22104AF  22279.94646991 -.01051136  00000-0 -85565-2 0  9991,2 53617  53.2174  90.9321 0000951  83.5177 296.1607 15.72552230  1303,6729.743,91.571,352.24800000000016,350.968,0.0
53617.0,STARLINK-4601,PAYLOAD,2022-10-07 00:00:00,15.7243228,9.73e-05,53.2173,90.6672,83.9211,239.0275,-0.0086237,-0.01053676,0.0,0 STARLINK-4601,1 53617U 22104AF  22280.00001157 -.01053676  00000-0 -86237-2 0  9997,2 53617  53.2173  90.6672 0000973  83.9211 239.0275 15.72432280  6309,6730.085,91.578,352.605,351.295,0.0
53617.0,STARLINK-4601,PAYLOAD,2022-10-07 14:00:01,15.71106854,0.0001065999999999,53.2172,87.7854,68.4455,317.097,-0.0091851,-0.0105991,0.0,0 STARLINK-4601,1 53617U 22104AF  22280.58334491 -.01059910  00000-0 -91851-2 0  9995,2 53617  53.2172  87.7854 0001066  68.4455 317.0970 15.71106854  1307,6733.869000000002,91.655,356.452,355.017,0.0
53617.0,STARLINK-4601,PAYLOAD,2022-10-07 22:00:00,15.70346572,0.0001182,53.2171,86.1438,71.9676,39.5159,-0.0094553,-0.01056965,0.0,0 STARLINK-4601,1 53617U 22104AF  22280.91667824 -.01056965  00000-0 -94553-2 0  9990,2 53617  53.2171  86.1438 0001182  71.9676  39.5159 15.70346572  6458,6736.043000000002,91.7,358.704,357.112,0.0
53617.0,STARLINK-4601,PAYLOAD,2022-10-08 14:00:01,15.68828695,0.0001114,53.217,82.8606,75.9291,204.7016,-0.010095,-0.01058808,0.0,0 STARLINK-4601,1 53617U 22104AF  22281.58334491 -.01058808  00000-0 -10095-1 0  9991,2 53617  53.2170  82.8606 0001114  75.9291 204.7016 15.68828695  1304,6740.387,91.788,363.003,361.501,0.0
53617.0,STARLINK-4601,PAYLOAD,2022-10-08 22:00:00,15.68063958,0.0001091,53.217,81.2244,60.8146,303.0215,-0.0103299999999999,-0.01050593,0.0,0 STARLINK-4601,1 53617U 22104AF  22281.91667824 -.01050593  00000-0 -10330-1 0  9992,2 53617  53.2170  81.2244 0001091  60.8146 303.0215 15.68063958  6606,6742.578,91.833,365.179,363.708,0.0
53617.0,STARLINK-4601,PAYLOAD,2022-10-09 14:00:01,15.66547344,0.0001295,53.2173,77.9524,57.5993,109.9076,-0.011032,-0.01054034,0.0,0 STARLINK-4601,1 53617U 22104AF  22282.58334491 -.01054034  00000-0 -11032-1 0  9991,2 53617  53.2173  77.9524 0001295  57.5993 109.9076 15.66547344  6715,6746.929,91.922,369.668,367.921,0.0
53617.0,STARLINK-4601,PAYLOAD,2022-10-09 22:00:00,15.65782835,0.0001291,53.2172,76.321,56.8657,191.1085,-0.011278,-0.01045558,0.0,0 STARLINK-4601,1 53617U 22104AF  22282.91667824 -.01045558  00000-0 -11278-1 0  9990,2 53617  53.2172  76.3210 0001291  56.8657 191.1085 15.65782835  1302,6749.125,91.967,371.862,370.119,0.0
53617.0,STARLINK-4601,PAYLOAD,2022-10-10 14:00:01,15.64267204,0.0001237,53.2174,73.0607,52.154,354.0144,-0.012059,-0.01051208,0.0,0 STARLINK-4601,1 53617U 22104AF  22283.58334491 -.01051208  00000-0 -12059-1 0  9992,2 53617  53.2174  73.0607 0001237  52.1540 354.0144 15.64267204  6878,6753.484,92.056,376.184,374.514,0.0
53617.0,STARLINK-4601,PAYLOAD,2022-10-10 22:00:01,15.63505161,0.000127,53.2172,71.4348,57.7187,66.2434,-0.012367,-0.01046393,0.0,0 STARLINK-4601,1 53617U 22104AF  22283.91668981 -.01046393  00000-0 -12367-1 0  9994,2 53617  53.2172  71.4348 0001270  57.7187  66.2434 15.63505161  1308,6755.678000000001,92.101,378.401,376.685,0.0
53617.0,STARLINK-4601,PAYLOAD,2022-10-11 14:00:01,15.61986586,0.0001247,53.2176,68.1859,62.3771,214.2385,-0.013134,-0.0106293,0.0,0 STARLINK-4601,1 53617U 22104AF  22284.58334491 -.01062930  00000-0 -13134-1 0  9992,2 53617  53.2176  68.1859 0001247  62.3771 214.2385 15.61986586  1309,6760.056,92.19,382.764,381.078,0.0
53617.0,STARLINK-4601,PAYLOAD,2022-10-11 22:00:00,15.61249789,0.0001274,53.217,66.5657,41.4723,310.1222,-0.013947,-0.01093674,0.0,0 STARLINK-4601,1 53617U 22104AF  22284.91667824 -.01093674  00000-0 -13947-1 0  9999,2 53617  53.2170  66.5657 0001274  41.4723 310.1222 15.61249789  1309,6762.183000000001,92.234,384.909,383.186,0.0
53617.0,STARLINK-4601,PAYLOAD,2022-10-12 06:00:00,15.60466929,0.0001210999999999,53.2174,64.9437,52.727,12.9579,-0.013925,-0.01062305,0.0,0 STARLINK-4601,1 53617U 22104AF  22285.25001157 -.01062305  00000-0 -13925-1 0  9991,2 53617  53.2174  64.9437 0001211  52.7270  12.9579 15.60466929  7139,6764.444,92.28,387.129,385.49,0.0
53617.0,STARLINK-4601,PAYLOAD,2022-10-12 14:00:01,15.59706719,0.0001404,53.2174,63.3275,54.3103,84.5388,-0.014311,-0.01060468,0.0,0 STARLINK-4601,1 53617U 22104AF  22285.58334491 -.01060468  00000-0 -14311-1 0  9995,2 53617  53.2174  63.3275 0001404  54.3103  84.5388 15.59706719  1307,6766.642,92.325,389.457,387.557,0.0
53617.0,STARLINK-4601,PAYLOAD,2022-10-12 22:00:00,15.58949699,0.0001373,53.217,61.7122,56.4315,154.6685,-0.014786,-0.01063995,0.0,0 STARLINK-4601,1 53617U 22104AF  22285.91667824 -.01063995  00000-0 -14786-1 0  9995,2 53617  53.2170  61.7122 0001373  56.4315 154.6685 15.58949699  7231,6768.833000000001,92.37,391.627,389.768,0.0
53617.0,STARLINK-4601,PAYLOAD,2022-10-13 14:00:01,15.57430663,0.000138,53.2173,58.4856,43.3802,309.4866,-0.015657,-0.01063582,0.0,0 STARLINK-4601,1 53617U 22104AF  22286.58334491 -.01063582  00000-0 -15657-1 0  9990,2 53617  53.2173  58.4856 0001380  43.3802 309.4866 15.57430663  1303,6773.233,92.46,396.033,394.163,0.0
53617.0,STARLINK-4601,PAYLOAD,2022-10-13 20:00:01,15.56858684,0.0001378,53.2173,57.2784,43.5945,271.5586,-0.015923,-0.01059049,0.0,0 STARLINK-4601,1 53617U 22104AF  22286.83335648 -.01059049  00000-0 -15923-1 0  9992,2 53617  53.2173  57.2784 0001378  43.5945 271.5586 15.56858684  7374,6774.892,92.494,397.691,395.823,0.0
53617.0,STARLINK-4601,PAYLOAD,2022-10-13 22:00:00,15.56670646,0.0001486999999999,53.2171,56.8756,38.5236,23.8574,-0.016084,-0.01061981,0.0,0 STARLINK-4601,1 53617U 22104AF  22286.91667824 -.01061981  00000-0 -16084-1 0  9992,2 53617  53.2171  56.8756 0001487  38.5236  23.8574 15.56670646  1306,6775.438,92.505,398.31,396.295,0.0
53617.0,STARLINK-4601,PAYLOAD,2022-10-14 14:00:01,15.55148738,0.0001595999999999,53.2175,53.6602,47.3275,151.3455,-0.016947,-0.01057684,0.0,0 STARLINK-4601,1 53617U 22104AF  22287.58334491 -.01057684  00000-0 -16947-1 0  9990,2 53617  53.2175  53.6602 0001596  47.3275 151.3455 15.55148738  1303,6779.857,92.596,402.804,400.64,0.0
53617.0,STARLINK-4601,PAYLOAD,2022-10-14 16:00:00,15.54962007,0.0001447,53.2175,53.2593,46.3215,259.1296,-0.017156,-0.01062796,0.0,0 STARLINK-4601,1 53617U 22104AF  22287.66667824 -.01062796  00000-0 -17156-1 0  9991,2 53617  53.2175  53.2593 0001447  46.3215 259.1296 15.54962007  7506,6780.4,92.607,403.246,401.284,0.0
53617.0,STARLINK-4601,PAYLOAD,2022-10-14 22:00:00,15.54393418,0.0001462,53.2172,52.0554,46.2457,219.202,-0.017546,-0.0106422999999999,0.0,0 STARLINK-4601,1 53617U 22104AF  22287.91667824 -.01064230  00000-0 -17546-1 0  9997,2 53617  53.2172  52.0554 0001462  46.2457 219.2020 15.54393418  1309,6782.053000000001,92.641,404.91,402.927,0.0
53617.0,STARLINK-4601,PAYLOAD,2022-10-15 14:00:01,15.52873298,0.0001783,53.2175,48.8514,30.1091,6.1534,-0.018505,-0.01061917,0.0,0 STARLINK-4601,1 53617U 22104AF  22288.58334491 -.01061917  00000-0 -18505-1 0  9997,2 53617  53.2175  48.8514 0001783  30.1091   6.1534 15.52873298  1303,6786.479,92.731,409.554,407.134,0.0
